GLOBALSTAR M045 [-]     
1 25676U 99019A   23333.62249990 -.00000072  00000+0  19052-3 0  9998
2 25676  51.9947 117.1923 0001521 134.0042 309.0706 12.27020546123965
GLOBALSTAR M019 [-]     
1 25677U 99019B   23333.09115568  .00000049  00000+0  14537-2 0  9998
2 25677  51.9857 209.2550 0000193  39.3175 108.4779 12.13846546116394
GLOBALSTAR M044 [-]     
1 25678U 99019C   23333.50268523 -.00000106  00000+0 -31792-3 0  9994
2 25678  51.9963  88.6989 0006459  36.4615  42.8568 11.90227023103969
GLOBALSTAR M042 [-]     
1 25679U 99019D   23333.09313062 -.00000016  00000+0  71639-3 0  9991
2 25679  52.0000 209.0078 0002306 195.3684 311.5432 12.22052355116049
GLOBALSTAR M025 [-]     
1 25770U 99031A   23333.42903993 -.00000045  00000+0  70721-3 0  9995
2 25770  51.9854  29.8796 0000958 259.7091 192.4186 11.22547816418170
GLOBALSTAR M049 [-]     
1 25771U 99031B   23333.45018317 -.00000049  00000+0  56088-3 0  9990
2 25771  51.9907  36.1618 0003407 143.7366 216.3662 11.12100077 54481
GLOBALSTAR M047 [-]     
1 25772U 99031C   23333.53634753 -.00000082  00000+0 -35674-3 0  9994
2 25772  51.9826  86.9740 0016011  14.8224 345.3048 11.31917031407050
GLOBALSTAR M052 [-]     
1 25773U 99031D   23333.46729826 -.00000069  00000+0 -11628-3 0  9991
2 25773  51.9828 152.7513 0001723 347.2497  24.5986 11.15047693415407
